STARLINK-31905          
1 59896U 24100M   26068.15346707 -.00000595  00000+0 -12088-4 0  9992
2 59896  43.0007 125.0691 0001130 220.3311 139.7457 15.27574954101113
FLOCK 4G-7              
1 62624U 25009R   26068.79996108  .00011422  00000+0  43168-3 0  9991
2 62624  97.3984 150.8270 0001396 336.9783  23.1393 15.27141471 63725
